{
  "norad_id": 61529,
  "name": "STARLINK-32351",
  "history": [
    {
      "epoch": "2026-04-12T22:01:00.966720Z",
      "apogee_km": 476.03541257349843,
      "perigee_km": 474.4139072047683,
      "latitude_deg": 1.3921397218190209e-05,
      "longitude_deg": 169.21205471932052,
      "height_km": 476.05527091495475,
      "semi_major_axis_km": 6853.361659889133,
      "eccentricity": 0.0001183,
      "inclination_deg": 53.1631,
      "raan_deg": 340.5817,
      "arg_perigee_deg": 85.1945,
      "mean_anomaly_deg": 274.9191,
      "mean_motion_rev_day": 15.30196788
    },
    {
      "epoch": "2026-04-14T19:28:33.595680Z",
      "apogee_km": 476.21569505589196,
      "perigee_km": 474.26385335059786,
      "latitude_deg": -3.0612139825779485e-06,
      "longitude_deg": -163.34074756410823,
      "height_km": 476.23926559503866,
      "semi_major_axis_km": 6853.376774203244,
      "eccentricity": 0.0001424,
      "inclination_deg": 53.1602,
      "raan_deg": 331.7818,
      "arg_perigee_deg": 95.9758,
      "mean_anomaly_deg": 264.1405,
      "mean_motion_rev_day": 15.30191726
    },
    {
      "epoch": "2026-04-15T20:33:23.671008Z",
      "apogee_km": 475.93704999957845,
      "perigee_km": 474.48551083378607,
      "latitude_deg": -1.547352815121969e-05,
      "longitude_deg": 174.56737531176248,
      "height_km": 476.1983094204781,
      "semi_major_axis_km": 6853.3482804166815,
      "eccentricity": 0.0001059,
      "inclination_deg": 53.1603,
      "raan_deg": 326.9286,
      "arg_perigee_deg": 97.0139,
      "mean_anomaly_deg": 263.0982,
      "mean_motion_rev_day": 15.30201269
    },
    {
      "epoch": "2026-04-16T07:31:47.370144Z",
      "apogee_km": 475.96904328194614,
      "perigee_km": 474.5531312371186,
      "latitude_deg": 3.0145872921747378e-06,
      "longitude_deg": 7.394588212227546,
      "height_km": 476.2937818065958,
      "semi_major_axis_km": 6853.398087259532,
      "eccentricity": 0.0001033,
      "inclination_deg": 53.1594,
      "raan_deg": 324.8052,
      "arg_perigee_deg": 100.9392,
      "mean_anomaly_deg": 259.1725,
      "mean_motion_rev_day": 15.30184588
    },
    {
      "epoch": "2026-04-17T21:09:03.788640Z",
      "apogee_km": 476.1542185688222,
      "perigee_km": 474.4329109481778,
      "latitude_deg": 1.4527785752797265e-05,
      "longitude_deg": 154.25013980073993,
      "height_km": 476.3283960711538,
      "semi_major_axis_km": 6853.4305647585,
      "eccentricity": 0.00012558,
      "inclination_deg": 53.1599,
      "raan_deg": 317.5242,
      "arg_perigee_deg": 99.1419,
      "mean_anomaly_deg": 260.9724,
      "mean_motion_rev_day": 15.30173711
    },
    {
      "epoch": "2026-04-18T20:39:51.626880Z",
      "apogee_km": 476.2403206889576,
      "perigee_km": 474.2158366447193,
      "latitude_deg": -4.9816216163928024e-05,
      "longitude_deg": 156.03340955050467,
      "height_km": 475.9593204606534,
      "semi_major_axis_km": 6853.365078666838,
      "eccentricity": 0.0001477,
      "inclination_deg": 53.16,
      "raan_deg": 312.9725,
      "arg_perigee_deg": 80.5278,
      "mean_anomaly_deg": 279.5889,
      "mean_motion_rev_day": 15.30195643
    },
    {
      "epoch": "2026-04-19T20:10:41.117952Z",
      "apogee_km": 476.05195600247316,
      "perigee_km": 474.45511600758346,
      "latitude_deg": 9.656396611478982e-06,
      "longitude_deg": 157.81056470470932,
      "height_km": 475.92956150544296,
      "semi_major_axis_km": 6853.390536005028,
      "eccentricity": 0.0001165,
      "inclination_deg": 53.1601,
      "raan_deg": 308.4215,
      "arg_perigee_deg": 73.8365,
      "mean_anomaly_deg": 286.2764,
      "mean_motion_rev_day": 15.30187117
    },
    {
      "epoch": "2026-04-19T21:44:44.372832Z",
      "apogee_km": 475.9669366202115,
      "perigee_km": 474.5414312539524,
      "latitude_deg": -6.279789790353208e-06,
      "longitude_deg": 133.92931290433532,
      "height_km": 475.8846925599142,
      "semi_major_axis_km": 6853.391183937081,
      "eccentricity": 0.000104,
      "inclination_deg": 53.1603,
      "raan_deg": 308.1182,
      "arg_perigee_deg": 67.9123,
      "mean_anomaly_deg": 292.1988,
      "mean_motion_rev_day": 15.301869
    },
    {
      "epoch": "2026-04-21T16:04:10.034976Z",
      "apogee_km": 476.27710993822166,
      "perigee_km": 474.3266212370754,
      "latitude_deg": 5.785393696964922e-05,
      "longitude_deg": -150.85734549511113,
      "height_km": 475.9503179589604,
      "semi_major_axis_km": 6853.438865587648,
      "eccentricity": 0.0001423,
      "inclination_deg": 53.1601,
      "raan_deg": 299.9266,
      "arg_perigee_deg": 75.1787,
      "mean_anomaly_deg": 284.9372,
      "mean_motion_rev_day": 15.30170931
    },
    {
      "epoch": "2026-04-21T16:04:10.035840Z",
      "apogee_km": 476.2770414038341,
      "perigee_km": 474.32668977146386,
      "latitude_deg": 5.874565119102846e-05,
      "longitude_deg": -150.8573484406038,
      "height_km": 475.95033549020457,
      "semi_major_axis_km": 6853.438865587648,
      "eccentricity": 0.00014229,
      "inclination_deg": 53.1601,
      "raan_deg": 299.9266,
      "arg_perigee_deg": 75.1787,
      "mean_anomaly_deg": 284.9372,
      "mean_motion_rev_day": 15.30170931
    },
    {
      "epoch": "2026-04-22T21:51:10.274112Z",
      "apogee_km": 475.94019865794326,
      "perigee_km": 474.5064756754073,
      "latitude_deg": 2.0024550576121468e-05,
      "longitude_deg": 115.40446607787479,
      "height_km": 475.86799670572225,
      "semi_major_axis_km": 6853.360337166675,
      "eccentricity": 0.0001046,
      "inclination_deg": 53.1599,
      "raan_deg": 294.1626,
      "arg_perigee_deg": 69.2652,
      "mean_anomaly_deg": 290.8461,
      "mean_motion_rev_day": 15.30197231
    },
    {
      "epoch": "2026-04-24T20:52:45.667200Z",
      "apogee_km": 475.93104847656105,
      "perigee_km": 474.54940762738624,
      "latitude_deg": -3.434760113839854e-05,
      "longitude_deg": 118.9736419393892,
      "height_km": 476.33667085104406,
      "semi_major_axis_km": 6853.377228051973,
      "eccentricity": 0.0001008,
      "inclination_deg": 53.1597,
      "raan_deg": 285.0606,
      "arg_perigee_deg": 106.6547,
      "mean_anomaly_deg": 253.4564,
      "mean_motion_rev_day": 15.30191574
    },
    {
      "epoch": "2026-04-25T20:23:35.764800Z",
      "apogee_km": 476.0537624930157,
      "perigee_km": 474.54463584195946,
      "latitude_deg": -7.031245674833471e-05,
      "longitude_deg": 120.74849276239343,
      "height_km": 476.2038709998197,
      "semi_major_axis_km": 6853.436199167488,
      "eccentricity": 0.0001101,
      "inclination_deg": 53.1602,
      "raan_deg": 280.5099,
      "arg_perigee_deg": 90.4819,
      "mean_anomaly_deg": 269.6307,
      "mean_motion_rev_day": 15.30171824
    },
    {
      "epoch": "2026-04-26T18:20:18.980448Z",
      "apogee_km": 475.8711098795229,
      "perigee_km": 474.5691090958626,
      "latitude_deg": 2.3436549890078124e-05,
      "longitude_deg": 146.4208348311363,
      "height_km": 475.94779154376033,
      "semi_major_axis_km": 6853.3571094876925,
      "eccentricity": 9.499e-05,
      "inclination_deg": 53.1599,
      "raan_deg": 276.2635,
      "arg_perigee_deg": 74.7843,
      "mean_anomaly_deg": 285.3263,
      "mean_motion_rev_day": 15.30198312
    },
    {
      "epoch": "2026-04-27T17:51:07.360416Z",
      "apogee_km": 476.0234183355151,
      "perigee_km": 474.4444016778507,
      "latitude_deg": 2.203599548646087e-05,
      "longitude_deg": 148.20268870875387,
      "height_km": 475.8045255779224,
      "semi_major_axis_km": 6853.370910006683,
      "eccentricity": 0.0001152,
      "inclination_deg": 53.1595,
      "raan_deg": 271.7126,
      "arg_perigee_deg": 65.4758,
      "mean_anomaly_deg": 294.6363,
      "mean_motion_rev_day": 15.3019369
    },
    {
      "epoch": "2026-04-28T17:21:54.224064Z",
      "apogee_km": 475.88867637798467,
      "perigee_km": 474.53582523587556,
      "latitude_deg": 1.0898402317169193e-05,
      "longitude_deg": 149.99037061049935,
      "height_km": 475.9581858275353,
      "semi_major_axis_km": 6853.34925080693,
      "eccentricity": 9.87e-05,
      "inclination_deg": 53.1595,
      "raan_deg": 267.1612,
      "arg_perigee_deg": 76.9703,
      "mean_anomaly_deg": 283.1408,
      "mean_motion_rev_day": 15.30200944
    },
    {
      "epoch": "2026-04-29T18:26:45.409632Z",
      "apogee_km": 475.9926500821957,
      "perigee_km": 474.4451623185769,
      "latitude_deg": 1.5912815427137315e-05,
      "longitude_deg": 127.89346619726253,
      "height_km": 476.067527621762,
      "semi_major_axis_km": 6853.355906200386,
      "eccentricity": 0.0001129,
      "inclination_deg": 53.159,
      "raan_deg": 262.3076,
      "arg_perigee_deg": 86.3291,
      "mean_anomaly_deg": 273.7839,
      "mean_motion_rev_day": 15.30198715
    },
    {
      "epoch": "2026-04-30T14:49:27.047424Z",
      "apogee_km": 476.0665532412813,
      "perigee_km": 474.3906312193567,
      "latitude_deg": 1.4721953087767784e-05,
      "longitude_deg": 177.4385699997395,
      "height_km": 476.1194911810512,
      "semi_major_axis_km": 6853.365592230319,
      "eccentricity": 0.00012227,
      "inclination_deg": 53.1596,
      "raan_deg": 258.3631,
      "arg_perigee_deg": 89.5081,
      "mean_anomaly_deg": 270.606,
      "mean_motion_rev_day": 15.30195471
    },
    {
      "epoch": "2026-05-02T09:08:53.919168Z",
      "apogee_km": 475.9620225830822,
      "perigee_km": 474.5680406098554,
      "latitude_deg": 5.733447528387177e-06,
      "longitude_deg": -107.35329496802369,
      "height_km": 476.0602536853562,
      "semi_major_axis_km": 6853.402031596468,
      "eccentricity": 0.0001017,
      "inclination_deg": 53.1588,
      "raan_deg": 250.1714,
      "arg_perigee_deg": 81.4955,
      "mean_anomaly_deg": 278.6161,
      "mean_motion_rev_day": 15.30183267
    }
  ]
}